{"type":"FeatureCollection","features":[{"type":"Feature","properties":{"name":"Barking and Dagenham"},"geometry":{"type":"Polygon","coordinates":[[[0.15974,51.51571],[0.16452,51.52708],[0.17088,51.5327],[0.174,51.53763],[0.17931,51.54036],[0.17992,51.54327],[0.18586,51.54724],[0.19026,51.5527],[0.18449,51.55766],[0.1827,51.56133],[0.1836,51.56469],[0.17347,51.56512],[0.16193,51.56162],[0.15244,51.5675],[0.14937,51.5703],[0.14706,51.5757],[0.14753,51.58082],[0.15101,51.58378],[0.15111,51.59558],[0.14796,51.59794],[0.14822,51.59908],[0.14665,51.59948],[0.13749,51.59387],[0.12961,51.59008],[0.13109,51.58753],[0.12648,51.58673],[0.12771,51.58166],[0.13092,51.57942],[0.12931,51.57632],[0.13099,51.57346],[0.12942,51.56647],[0.11983,51.56251],[0.11723,51.55691],[0.11113,51.55249],[0.10849,51.5527],[0.10531,51.55029],[0.09354,51.54581],[0.09155,51.54828],[0.08631,51.54745],[0.08164,51.54522],[0.07186,51.54361],[0.06839,51.54444],[0.06677,51.54128],[0.0727,51.53125],[0.0859,51.52582],[0.09236,51.52588],[0.09258,51.52576],[0.09393,51.52136],[0.09468,51.52082],[0.09495,51.51707],[0.09815,51.51522],[0.09866,51.51494],[0.09915,51.51468],[0.09978,51.51192],[0.1103,51.51184],[0.11837,51.5136],[0.12535,51.51545],[0.13277,51.51522],[0.13912,51.51378],[0.14693,51.51074],[0.15802,51.50878],[0.15941,51.51474],[0.15974,51.51571]]]}},{"type":"Feature","properties":{"name":"Barnet"},"geometry":{"type":"Polygon","coordinates":[[[-0.18207,51.66864],[-0.18777,51.66792],[-0.19093,51.66402],[-0.19663,51.66553],[-0.19899,51.66824],[-0.20334,51.67016],[-0.20794,51.66663],[-0.20785,51.6629],[-0.21349,51.66236],[-0.21979,51.6607],[-0.22603,51.65766],[-0.22848,51.66],[-0.23421,51.65829],[-0.24438,51.65653],[-0.24985,51.65465],[-0.25224,51.6466],[-0.25732,51.64187],[-0.26159,51.64403],[-0.26833,51.64383],[-0.27282,51.6421],[-0.27399,51.63874],[-0.28138,51.63838],[-0.28549,51.63698],[-0.29612,51.63548],[-0.30445,51.63639],[-0.30555,51.63443],[-0.30393,51.6315],[-0.28528,51.61545],[-0.28438,51.61495],[-0.28338,51.61433],[-0.28217,51.61339],[-0.27378,51.60575],[-0.26712,51.6004],[-0.24825,51.5844],[-0.25397,51.58195],[-0.2546,51.5797],[-0.25134,51.57321],[-0.25259,51.57157],[-0.24954,51.56901],[-0.24668,51.5716],[-0.24226,51.57285],[-0.23736,51.57245],[-0.23717,51.5724],[-0.23572,51.57258],[-0.23558,51.57259],[-0.23341,51.57201],[-0.22192,51.56297],[-0.21614,51.55742],[-0.21547,51.55687],[-0.21534,51.55677],[-0.21482,51.55637],[-0.21343,51.55518],[-0.20993,51.5568],[-0.20574,51.55532],[-0.20051,51.55618],[-0.19521,51.56053],[-0.19063,51.56205],[-0.18996,51.56473],[-0.1899,51.56484],[-0.18866,51.56561],[-0.18835,51.5658],[-0.18014,51.56973],[-0.17457,51.56936],[-0.17124,51.57246],[-0.16971,51.57643],[-0.16685,51.57871],[-0.16572,51.58328],[-0.16104,51.58543],[-0.15944,51.59161],[-0.16169,51.59771],[-0.15989,51.60026],[-0.15673,51.60495],[-0.15327,51.60271],[-0.15288,51.59909],[-0.15202,51.59831],[-0.14737,51.59889],[-0.14746,51.59905],[-0.14696,51.59923],[-0.14213,51.60326],[-0.1434,51.60888],[-0.13874,51.61022],[-0.14449,51.61552],[-0.14193,51.61623],[-0.13535,51.62182],[-0.1335,51.62636],[-0.1291,51.6323],[-0.1339,51.63365],[-0.14103,51.63823],[-0.14506,51.64268],[-0.14787,51.64212],[-0.14987,51.64883],[-0.15474,51.65557],[-0.165,51.65826],[-0.18585,51.66287],[-0.18207,51.66864]]]}},{"type":"Feature","properties":{"name":"Bexley"},"geometry":{"type":"Polygon","coordinates":[[[0.15802,51.50878],[0.14693,51.51074],[0.13912,51.51378],[0.13277,51.51522],[0.12535,51.51545],[0.11837,51.5136],[0.12061,51.51106],[0.12131,51.49136],[0.12213,51.48276],[0.12423,51.47684],[0.11856,51.47891],[0.11205,51.47309],[0.10829,51.47614],[0.10213,51.47445],[0.09834,51.47546],[0.09665,51.47327],[0.09337,51.47297],[0.0849,51.4687],[0.08334,51.46645],[0.08229,51.4612],[0.0787,51.45927],[0.08577,51.45647],[0.08807,51.44681],[0.08745,51.44326],[0.08088,51.44046],[0.07651,51.43488],[0.07538,51.43204],[0.0766,51.43175],[0.08074,51.43083],[0.08164,51.43057],[0.0918,51.42228],[0.09225,51.42199],[0.0933,51.42125],[0.09366,51.42102],[0.10358,51.41561],[0.11355,51.41307],[0.11792,51.4132],[0.12577,51.41486],[0.13425,51.41389],[0.14895,51.40849],[0.15298,51.40871],[0.15382,51.41127],[0.1492,51.41244],[0.15114,51.41493],[0.1512,51.42044],[0.1529,51.42171],[0.15381,51.42753],[0.15592,51.43088],[0.16359,51.4289],[0.16623,51.43028],[0.16674,51.43506],[0.17119,51.44157],[0.17603,51.44201],[0.18433,51.44466],[0.19106,51.4488],[0.19307,51.45171],[0.19919,51.45215],[0.2034,51.45434],[0.20291,51.45825],[0.21067,51.46249],[0.21144,51.46876],[0.2089,51.47077],[0.21193,51.47333],[0.21257,51.47576],[0.21611,51.47656],[0.21644,51.47914],[0.22376,51.48228],[0.21752,51.48483],[0.21039,51.48589],[0.19883,51.48438],[0.18826,51.48446],[0.18341,51.48624],[0.17909,51.49047],[0.17471,51.50161],[0.16858,51.50629],[0.16367,51.50803],[0.15802,51.50878]]]}},{"type":"Feature","properties":{"name":"Brent"},"geometry":{"type":"Polygon","coordinates":[[[-0.23736,51.57245],[-0.24226,51.57285],[-0.24668,51.5716],[-0.24954,51.56901],[-0.25259,51.57157],[-0.25134,51.57321],[-0.2546,51.5797],[-0.25397,51.58195],[-0.24825,51.5844],[-0.26712,51.6004],[-0.26975,51.59911],[-0.27023,51.59883],[-0.27063,51.59861],[-0.28267,51.59584],[-0.28343,51.59572],[-0.28456,51.5955],[-0.28491,51.59541],[-0.29008,51.59377],[-0.28488,51.5913],[-0.28462,51.59104],[-0.28309,51.58804],[-0.28305,51.58784],[-0.28252,51.5851],[-0.28402,51.58536],[-0.28898,51.58597],[-0.30047,51.58724],[-0.30575,51.58691],[-0.31427,51.5837],[-0.31877,51.58112],[-0.32665,51.5788],[-0.32472,51.5732],[-0.32213,51.56968],[-0.32865,51.56597],[-0.32823,51.56254],[-0.3314,51.56155],[-0.33556,51.55661],[-0.32794,51.55533],[-0.31257,51.54918],[-0.30722,51.54529],[-0.30855,51.54327],[-0.30594,51.53946],[-0.30635,51.53385],[-0.30271,51.53201],[-0.29637,51.53531],[-0.2935,51.53496],[-0.28511,51.53743],[-0.28414,51.53789],[-0.28275,51.53855],[-0.28254,51.53865],[-0.27864,51.53538],[-0.28159,51.53327],[-0.28351,51.53284],[-0.28401,51.53354],[-0.28416,51.53349],[-0.28936,51.53169],[-0.28428,51.5291],[-0.28333,51.52895],[-0.28295,51.52887],[-0.28243,51.52879],[-0.26658,51.53054],[-0.2604,51.53456],[-0.25074,51.53421],[-0.24636,51.53282],[-0.24362,51.53185],[-0.23732,51.53204],[-0.23677,51.53218],[-0.23554,51.53244],[-0.23531,51.53246],[-0.22847,51.53038],[-0.22449,51.53011],[-0.21599,51.52795],[-0.21517,51.53141],[-0.20814,51.53277],[-0.2017,51.53267],[-0.19796,51.53014],[-0.19286,51.53216],[-0.19145,51.53631],[-0.2063,51.54944],[-0.21343,51.55518],[-0.21482,51.55637],[-0.21534,51.55677],[-0.21547,51.55687],[-0.21614,51.55742],[-0.22192,51.56297],[-0.23341,51.57201],[-0.23558,51.57259],[-0.23572,51.57258],[-0.23717,51.5724],[-0.23736,51.57245]]]}},{"type":"Feature","properties":{"name":"Bromley"},"geometry":{"type":"Polygon","coordinates":[[[-0.07863,51.41984],[-0.08055,51.41569],[-0.07369,51.41284],[-0.07339,51.40961],[-0.06864,51.40391],[-0.05937,51.39926],[-0.05294,51.40147],[-0.05061,51.39957],[-0.05338,51.39518],[-0.04772,51.39304],[-0.04272,51.38946],[-0.03648,51.38847],[-0.03785,51.38324],[-0.0369,51.37701],[-0.0261,51.37646],[-0.02357,51.37218],[-0.0222,51.36585],[-0.0156,51.35888],[-0.00863,51.35583],[-0.00533,51.35279],[0.00089,51.33359],[0.00333,51.33215],[0.00232,51.32914],[0.00702,51.31563],[0.01037,51.31614],[0.00851,51.31005],[0.01503,51.29178],[0.01913,51.29168],[0.02088,51.29659],[0.02486,51.30215],[0.03293,51.30752],[0.04113,51.30271],[0.04433,51.29858],[0.04576,51.294],[0.05043,51.29397],[0.05608,51.29239],[0.05854,51.28935],[0.07273,51.29152],[0.08049,51.29169],[0.08572,51.29308],[0.08952,51.29773],[0.08624,51.30035],[0.08285,51.30563],[0.08491,51.30604],[0.08364,51.31071],[0.08506,51.31602],[0.08782,51.31831],[0.09621,51.32129],[0.10083,51.32558],[0.10481,51.32734],[0.11019,51.32803],[0.11425,51.32739],[0.11578,51.3295],[0.12165,51.33376],[0.12005,51.33474],[0.11672,51.3413],[0.11865,51.34421],[0.12517,51.34586],[0.1363,51.34556],[0.14265,51.35073],[0.14594,51.35822],[0.14509,51.36285],[0.14839,51.36637],[0.15125,51.37219],[0.14964,51.37358],[0.15328,51.37804],[0.15042,51.38109],[0.1487,51.38867],[0.14988,51.39088],[0.14778,51.3928],[0.15832,51.39224],[0.15996,51.39465],[0.15655,51.4024],[0.15434,51.40494],[0.14895,51.40849],[0.13425,51.41389],[0.12577,51.41486],[0.11792,51.4132],[0.11355,51.41307],[0.10358,51.41561],[0.09366,51.42102],[0.0933,51.42125],[0.09225,51.42199],[0.0918,51.42228],[0.08164,51.43057],[0.08074,51.43083],[0.0766,51.43175],[0.07538,51.43204],[0.0749,51.43084],[0.07437,51.4315],[0.07353,51.43127],[0.0723,51.42995],[0.063,51.42412],[0.05869,51.42456],[0.0519,51.43078],[0.05121,51.43138],[0.03996,51.441],[0.03037,51.44435],[0.02895,51.44164],[0.02875,51.43876],[0.02473,51.43823],[0.0254,51.43594],[0.03383,51.43175],[0.03772,51.43103],[0.0378,51.43074],[0.0386,51.42465],[0.03624,51.42237],[0.02518,51.429],[0.02111,51.42682],[0.01846,51.42702],[0.0074,51.42139],[0.00355,51.41741],[0.00001,51.41763],[-0.00001,51.41762],[-0.0008,51.4159],[-0.01049,51.41356],[-0.01421,51.41367],[-0.02218,51.41676],[-0.02091,51.42093],[-0.03032,51.42573],[-0.03744,51.42503],[-0.0436,51.42292],[-0.05173,51.42251],[-0.05691,51.42299],[-0.06344,51.42531],[-0.07389,51.42616],[-0.07828,51.42052],[-0.07863,51.41984]]]}},{"type":"Feature","properties":{"name":"Camden"},"geometry":{"type":"Polygon","coordinates":[[[-0.14237,51.56915],[-0.15031,51.5716],[-0.16681,51.573],[-0.17124,51.57246],[-0.17457,51.56936],[-0.18014,51.56973],[-0.18835,51.5658],[-0.18866,51.56561],[-0.1899,51.56484],[-0.18996,51.56473],[-0.19063,51.56205],[-0.19521,51.56053],[-0.20051,51.55618],[-0.20574,51.55532],[-0.20993,51.5568],[-0.21343,51.55518],[-0.2063,51.54944],[-0.19145,51.53631],[-0.18874,51.53455],[-0.18466,51.53793],[-0.18038,51.53952],[-0.17388,51.5395],[-0.1695,51.53862],[-0.16492,51.5358],[-0.15269,51.53754],[-0.14715,51.52506],[-0.14286,51.5239],[-0.13699,51.51891],[-0.13079,51.51712],[-0.12756,51.51267],[-0.12285,51.51517],[-0.11945,51.51453],[-0.11467,51.51606],[-0.11156,51.51536],[-0.11377,51.51824],[-0.10781,51.51773],[-0.1053,51.51856],[-0.107,51.52218],[-0.11226,51.52369],[-0.11649,51.53012],[-0.12251,51.53075],[-0.12236,51.53691],[-0.12567,51.54215],[-0.12722,51.54777],[-0.13088,51.55144],[-0.13723,51.5555],[-0.14103,51.56074],[-0.14065,51.56462],[-0.14237,51.56915]]]}},{"type":"Feature","properties":{"name":"City of London"},"geometry":{"type":"Polygon","coordinates":[[[-0.08517,51.52036],[-0.09746,51.52225],[-0.0976,51.52071],[-0.1053,51.51856],[-0.10781,51.51773],[-0.11377,51.51824],[-0.11156,51.51536],[-0.11142,51.50976],[-0.10911,51.50985],[-0.0964,51.50939],[-0.08015,51.50687],[-0.07785,51.51001],[-0.07267,51.51025],[-0.07392,51.51447],[-0.07938,51.51887],[-0.07842,51.52153],[-0.08517,51.52036]]]}},{"type":"Feature","properties":{"name":"Croydon"},"geometry":{"type":"Polygon","coordinates":[[[-0.15654,51.32151],[-0.16187,51.31963],[-0.15719,51.31342],[-0.15832,51.31099],[-0.15434,51.31025],[-0.1577,51.30459],[-0.15531,51.30127],[-0.14981,51.3002],[-0.14096,51.29956],[-0.13731,51.30078],[-0.13104,51.29534],[-0.13018,51.29268],[-0.12428,51.28676],[-0.11777,51.28709],[-0.11464,51.29243],[-0.11104,51.29225],[-0.09431,51.29935],[-0.09116,51.30147],[-0.08881,51.30722],[-0.08192,51.31065],[-0.08151,51.31207],[-0.08474,51.31588],[-0.07881,51.31814],[-0.07885,51.31977],[-0.071,51.32123],[-0.07001,51.31889],[-0.06411,51.31862],[-0.05246,51.32238],[-0.04781,51.32651],[-0.05106,51.33085],[-0.05024,51.33264],[-0.04195,51.33381],[-0.03787,51.33871],[-0.03275,51.33744],[-0.02508,51.33861],[-0.02054,51.33714],[-0.01776,51.33293],[-0.01446,51.32998],[-0.01097,51.33356],[-0.00719,51.33339],[-0.00165,51.33031],[0.00232,51.32914],[0.00333,51.33215],[0.00089,51.33359],[-0.00533,51.35279],[-0.00863,51.35583],[-0.0156,51.35888],[-0.0222,51.36585],[-0.02357,51.37218],[-0.0261,51.37646],[-0.0369,51.37701],[-0.03785,51.38324],[-0.03648,51.38847],[-0.04272,51.38946],[-0.04772,51.39304],[-0.05338,51.39518],[-0.05061,51.39957],[-0.05294,51.40147],[-0.05937,51.39926],[-0.06864,51.40391],[-0.07339,51.40961],[-0.07369,51.41284],[-0.08055,51.41569],[-0.07863,51.41984],[-0.08638,51.41932],[-0.0936,51.42277],[-0.09388,51.42281],[-0.0948,51.42281],[-0.09614,51.42277],[-0.10647,51.42262],[-0.11267,51.42324],[-0.11587,51.42048],[-0.11993,51.41875],[-0.12255,51.41502],[-0.12777,51.41233],[-0.12944,51.40958],[-0.13244,51.40842],[-0.13129,51.40419],[-0.12418,51.39761],[-0.13434,51.39089],[-0.12961,51.38716],[-0.12818,51.38056],[-0.12332,51.37117],[-0.12095,51.36329],[-0.12187,51.35906],[-0.11908,51.35315],[-0.11688,51.34576],[-0.12589,51.34524],[-0.12709,51.34679],[-0.14149,51.34341],[-0.14457,51.34201],[-0.14449,51.3395],[-0.14751,51.33878],[-0.14514,51.33154],[-0.1493,51.32877],[-0.14442,51.32648],[-0.1455,51.32353],[-0.15654,51.32151]]]}},{"type":"Feature","properties":{"name":"Ealing"},"geometry":{"type":"Polygon","coordinates":[[[-0.37788,51.55497],[-0.38525,51.5512],[-0.39417,51.54868],[-0.39651,51.54602],[-0.39529,51.54263],[-0.4054,51.54246],[-0.41945,51.53993],[-0.41763,51.53681],[-0.41339,51.53472],[-0.37784,51.52906],[-0.37667,51.52894],[-0.37602,51.5251],[-0.38257,51.51797],[-0.3896,51.51437],[-0.38966,51.51432],[-0.38977,51.51422],[-0.38982,51.51417],[-0.39398,51.50678],[-0.40368,51.50314],[-0.40689,51.49972],[-0.38709,51.49471],[-0.38351,51.49484],[-0.37764,51.49665],[-0.37376,51.49192],[-0.37115,51.49071],[-0.36529,51.49342],[-0.36294,51.49595],[-0.35818,51.49778],[-0.34977,51.49905],[-0.3421,51.49606],[-0.33469,51.49623],[-0.32996,51.4951],[-0.32341,51.49592],[-0.31915,51.49429],[-0.31586,51.49593],[-0.31198,51.49203],[-0.30546,51.49459],[-0.30587,51.49623],[-0.29762,51.49495],[-0.30069,51.49937],[-0.29403,51.50158],[-0.28571,51.5008],[-0.28388,51.5014],[-0.28319,51.50167],[-0.28235,51.50211],[-0.28101,51.50274],[-0.27671,51.49856],[-0.27153,51.49491],[-0.26765,51.49396],[-0.25541,51.49493],[-0.25305,51.50142],[-0.25447,51.50394],[-0.24568,51.50468],[-0.24506,51.50676],[-0.24662,51.51127],[-0.24919,51.51417],[-0.24943,51.51485],[-0.25028,51.52018],[-0.25268,51.52464],[-0.24636,51.53282],[-0.25074,51.53421],[-0.2604,51.53456],[-0.26658,51.53054],[-0.28243,51.52879],[-0.28295,51.52887],[-0.28333,51.52895],[-0.28428,51.5291],[-0.28936,51.53169],[-0.28416,51.53349],[-0.28401,51.53354],[-0.28351,51.53284],[-0.28159,51.53327],[-0.27864,51.53538],[-0.28254,51.53865],[-0.28275,51.53855],[-0.28414,51.53789],[-0.28511,51.53743],[-0.2935,51.53496],[-0.29637,51.53531],[-0.30271,51.53201],[-0.30635,51.53385],[-0.30594,51.53946],[-0.30855,51.54327],[-0.30722,51.54529],[-0.31257,51.54918],[-0.32794,51.55533],[-0.33556,51.55661],[-0.34215,51.55746],[-0.34753,51.55971],[-0.36241,51.5573],[-0.36252,51.55606],[-0.37584,51.55309],[-0.37788,51.55497]]]}},{"type":"Feature","properties":{"name":"Enfield"},"geometry":{"type":"Polygon","coordinates":[[[-0.01222,51.64626],[-0.01171,51.65317],[-0.00893,51.66013],[-0.01146,51.66397],[-0.0106,51.66953],[-0.01131,51.67195],[-0.01029,51.67667],[-0.01103,51.68091],[-0.01973,51.68119],[-0.02834,51.68237],[-0.04718,51.6835],[-0.04915,51.68431],[-0.05657,51.68303],[-0.06631,51.68388],[-0.07896,51.68895],[-0.08534,51.69018],[-0.09527,51.69022],[-0.10379,51.69181],[-0.10923,51.69178],[-0.11839,51.68907],[-0.12233,51.68858],[-0.13274,51.68895],[-0.13763,51.6884],[-0.14935,51.68556],[-0.16347,51.68815],[-0.16359,51.68244],[-0.17245,51.67313],[-0.17564,51.6732],[-0.18207,51.66864],[-0.18585,51.66287],[-0.165,51.65826],[-0.15474,51.65557],[-0.14987,51.64883],[-0.14787,51.64212],[-0.14506,51.64268],[-0.14103,51.63823],[-0.1339,51.63365],[-0.1291,51.6323],[-0.1335,51.62636],[-0.13535,51.62182],[-0.14193,51.61623],[-0.14449,51.61552],[-0.13874,51.61022],[-0.13524,51.61125],[-0.12926,51.60968],[-0.11912,51.60839],[-0.0974,51.60853],[-0.09601,51.60929],[-0.09578,51.60931],[-0.09513,51.60868],[-0.09397,51.60886],[-0.0858,51.60844],[-0.05418,51.60885],[-0.05017,51.60739],[-0.04139,51.60567],[-0.03493,51.60843],[-0.03554,51.61212],[-0.03236,51.61665],[-0.0257,51.62202],[-0.01533,51.63549],[-0.01322,51.63988],[-0.01222,51.64626]]]}},{"type":"Feature","properties":{"name":"Greenwich"},"geometry":{"type":"Polygon","coordinates":[[[0.07538,51.43204],[0.07651,51.43488],[0.08088,51.44046],[0.08745,51.44326],[0.08807,51.44681],[0.08577,51.45647],[0.0787,51.45927],[0.08229,51.4612],[0.08334,51.46645],[0.0849,51.4687],[0.09337,51.47297],[0.09665,51.47327],[0.09834,51.47546],[0.10213,51.47445],[0.10829,51.47614],[0.11205,51.47309],[0.11856,51.47891],[0.12423,51.47684],[0.12213,51.48276],[0.12131,51.49136],[0.12061,51.51106],[0.11837,51.5136],[0.1103,51.51184],[0.09978,51.51192],[0.09081,51.51094],[0.08597,51.50826],[0.07905,51.50093],[0.07492,51.49843],[0.06626,51.49678],[0.05869,51.49645],[0.04126,51.49704],[0.0291,51.4958],[0.01895,51.49751],[0.01559,51.49927],[0.00766,51.50553],[0.0042,51.50673],[-0.00115,51.5059],[-0.00513,51.50099],[-0.00036,51.49141],[-0.00115,51.48871],[-0.0045,51.48634],[-0.01055,51.48475],[-0.01667,51.48469],[-0.02346,51.48684],[-0.02635,51.48153],[-0.02302,51.47964],[-0.01782,51.4809],[-0.01899,51.47721],[-0.02276,51.4743],[-0.02,51.4731],[-0.01906,51.46996],[-0.01307,51.46895],[-0.01402,51.47265],[-0.0018,51.47187],[0.01497,51.47311],[0.01671,51.46951],[0.01266,51.46982],[0.01334,51.46685],[0.00915,51.46589],[0.01015,51.45912],[0.01159,51.45672],[0.01754,51.45506],[0.01804,51.44942],[0.02199,51.44897],[0.02069,51.44419],[0.02162,51.44271],[0.02895,51.44164],[0.03037,51.44435],[0.03996,51.441],[0.05121,51.43138],[0.0519,51.43078],[0.05869,51.42456],[0.063,51.42412],[0.0723,51.42995],[0.07353,51.43127],[0.07437,51.4315],[0.0749,51.43084],[0.07538,51.43204]]]}},{"type":"Feature","properties":{"name":"Hackney"},"geometry":{"type":"Polygon","coordinates":[[[-0.06113,51.57781],[-0.07103,51.57571],[-0.08086,51.57569],[-0.0949,51.57363],[-0.09607,51.57072],[-0.10446,51.56473],[-0.09854,51.56086],[-0.09571,51.5612],[-0.09478,51.56099],[-0.09424,51.56082],[-0.09371,51.56058],[-0.09038,51.55784],[-0.09035,51.55418],[-0.08545,51.55219],[-0.07928,51.55161],[-0.07679,51.5461],[-0.08379,51.54663],[-0.08361,51.54509],[-0.08641,51.53757],[-0.09394,51.53406],[-0.09444,51.53388],[-0.095,51.53366],[-0.09596,51.53331],[-0.09585,51.53133],[-0.09548,51.53081],[-0.09536,51.52922],[-0.08955,51.52773],[-0.08497,51.52622],[-0.08517,51.52036],[-0.07842,51.52153],[-0.07614,51.52217],[-0.0772,51.52732],[-0.07221,51.53086],[-0.06626,51.53125],[-0.06531,51.53296],[-0.05279,51.53491],[-0.05138,51.53641],[-0.04487,51.53581],[-0.0414,51.53744],[-0.03293,51.54465],[-0.02903,51.54231],[-0.02529,51.54324],[-0.01644,51.5433],[-0.01907,51.55164],[-0.01713,51.55173],[-0.01842,51.55514],[-0.02459,51.55902],[-0.02987,51.56139],[-0.03325,51.56065],[-0.04505,51.56178],[-0.04743,51.56521],[-0.05838,51.57255],[-0.06113,51.57781]]]}},{"type":"Feature","properties":{"name":"Hammersmith and Fulham"},"geometry":{"type":"Polygon","coordinates":[[[-0.22847,51.53038],[-0.23531,51.53246],[-0.23554,51.53244],[-0.23677,51.53218],[-0.23732,51.53204],[-0.24362,51.53185],[-0.24636,51.53282],[-0.25268,51.52464],[-0.25028,51.52018],[-0.24943,51.51485],[-0.24919,51.51417],[-0.24662,51.51127],[-0.24506,51.50676],[-0.24568,51.50468],[-0.25447,51.50394],[-0.25305,51.50142],[-0.2493,51.49697],[-0.24461,51.49678],[-0.2454,51.4895],[-0.24341,51.48794],[-0.23981,51.48943],[-0.23363,51.48951],[-0.22726,51.48567],[-0.22568,51.48213],[-0.22504,51.47586],[-0.2217,51.47238],[-0.21596,51.46816],[-0.2048,51.46469],[-0.19516,51.46391],[-0.19014,51.46433],[-0.18902,51.46461],[-0.1878,51.46498],[-0.18736,51.46513],[-0.18286,51.46754],[-0.17898,51.47343],[-0.17778,51.47757],[-0.18385,51.47744],[-0.19359,51.48583],[-0.19826,51.48814],[-0.20517,51.49496],[-0.20797,51.49604],[-0.21412,51.50076],[-0.21788,51.50612],[-0.21517,51.50767],[-0.21925,51.5096],[-0.222,51.51477],[-0.22827,51.52112],[-0.2267,51.522],[-0.22847,51.53038]]]}},{"type":"Feature","properties":{"name":"Haringey"},"geometry":{"type":"Polygon","coordinates":[[[-0.09578,51.60931],[-0.09601,51.60929],[-0.0974,51.60853],[-0.11912,51.60839],[-0.12926,51.60968],[-0.13524,51.61125],[-0.13874,51.61022],[-0.1434,51.60888],[-0.14213,51.60326],[-0.14696,51.59923],[-0.14746,51.59905],[-0.14737,51.59889],[-0.15202,51.59831],[-0.15288,51.59909],[-0.15327,51.60271],[-0.15673,51.60495],[-0.15989,51.60026],[-0.16169,51.59771],[-0.15944,51.59161],[-0.16104,51.58543],[-0.16572,51.58328],[-0.16685,51.57871],[-0.16971,51.57643],[-0.17124,51.57246],[-0.16681,51.573],[-0.15031,51.5716],[-0.14237,51.56915],[-0.13115,51.57363],[-0.11954,51.57556],[-0.11504,51.57066],[-0.10446,51.56473],[-0.09607,51.57072],[-0.0949,51.57363],[-0.08086,51.57569],[-0.07103,51.57571],[-0.06113,51.57781],[-0.06221,51.57948],[-0.05797,51.58242],[-0.05211,51.58784],[-0.05335,51.59086],[-0.05041,51.59673],[-0.04776,51.5987],[-0.04688,51.59942],[-0.04139,51.60567],[-0.05017,51.60739],[-0.05418,51.60885],[-0.0858,51.60844],[-0.09397,51.60886],[-0.09513,51.60868],[-0.09578,51.60931]]]}},{"type":"Feature","properties":{"name":"Harrow"},"geometry":{"type":"Polygon","coordinates":[[[-0.30445,51.63639],[-0.31667,51.64057],[-0.32055,51.63801],[-0.32998,51.63537],[-0.33828,51.62951],[-0.33985,51.63077],[-0.35048,51.62662],[-0.35945,51.62534],[-0.36554,51.62137],[-0.37757,51.61784],[-0.38209,51.61743],[-0.38785,51.61553],[-0.39268,51.61522],[-0.39947,51.61344],[-0.40406,51.61322],[-0.40232,51.60716],[-0.40241,51.60206],[-0.40026,51.59861],[-0.39995,51.59825],[-0.39761,51.59708],[-0.39547,51.59165],[-0.39202,51.58836],[-0.39156,51.58159],[-0.3886,51.57779],[-0.38644,51.57159],[-0.38328,51.56728],[-0.38236,51.56293],[-0.37788,51.55497],[-0.37584,51.55309],[-0.36252,51.55606],[-0.36241,51.5573],[-0.34753,51.55971],[-0.34215,51.55746],[-0.33556,51.55661],[-0.3314,51.56155],[-0.32823,51.56254],[-0.32865,51.56597],[-0.32213,51.56968],[-0.32472,51.5732],[-0.32665,51.5788],[-0.31877,51.58112],[-0.31427,51.5837],[-0.30575,51.58691],[-0.30047,51.58724],[-0.28898,51.58597],[-0.28402,51.58536],[-0.28252,51.5851],[-0.28305,51.58784],[-0.28309,51.58804],[-0.28462,51.59104],[-0.28488,51.5913],[-0.29008,51.59377],[-0.28491,51.59541],[-0.28456,51.5955],[-0.28343,51.59572],[-0.28267,51.59584],[-0.27063,51.59861],[-0.27023,51.59883],[-0.26975,51.59911],[-0.26712,51.6004],[-0.27378,51.60575],[-0.28217,51.61339],[-0.28338,51.61433],[-0.28438,51.61495],[-0.28528,51.61545],[-0.30393,51.6315],[-0.30555,51.63443],[-0.30445,51.63639]]]}},{"type":"Feature","properties":{"name":"Havering"},"geometry":{"type":"Polygon","coordinates":[[[0.15941,51.51474],[0.15802,51.50878],[0.16367,51.50803],[0.16858,51.50629],[0.17471,51.50161],[0.17909,51.49047],[0.18341,51.48624],[0.18826,51.48446],[0.19883,51.48438],[0.21039,51.48589],[0.21052,51.49004],[0.21421,51.49605],[0.22171,51.49782],[0.22545,51.49759],[0.23002,51.49938],[0.22608,51.50589],[0.2399,51.50726],[0.24208,51.508],[0.2412,51.51376],[0.23723,51.51935],[0.24078,51.52122],[0.24291,51.52441],[0.25091,51.52883],[0.25389,51.5179],[0.26374,51.51788],[0.26545,51.52502],[0.26541,51.53217],[0.2722,51.53322],[0.2764,51.53294],[0.28183,51.53396],[0.29782,51.53533],[0.29727,51.53768],[0.30079,51.53877],[0.3216,51.54052],[0.33129,51.54078],[0.33397,51.54251],[0.32805,51.54858],[0.32788,51.55101],[0.32523,51.55307],[0.31897,51.55521],[0.31523,51.5581],[0.3131,51.56584],[0.29036,51.56432],[0.28676,51.57169],[0.28256,51.57809],[0.27366,51.58701],[0.27035,51.59112],[0.2694,51.5953],[0.26994,51.5996],[0.26461,51.59983],[0.25407,51.60162],[0.25814,51.60653],[0.26439,51.60786],[0.25776,51.61421],[0.25226,51.61779],[0.23793,51.62391],[0.22415,51.63176],[0.22214,51.63015],[0.21231,51.62701],[0.20352,51.62517],[0.19483,51.62574],[0.1863,51.62455],[0.18249,51.62582],[0.16896,51.62145],[0.16554,51.62247],[0.15529,51.62337],[0.13824,51.62357],[0.14454,51.61674],[0.14746,51.61249],[0.14955,51.60291],[0.14822,51.59908],[0.14796,51.59794],[0.15111,51.59558],[0.15101,51.58378],[0.14753,51.58082],[0.14706,51.5757],[0.14937,51.5703],[0.15244,51.5675],[0.16193,51.56162],[0.17347,51.56512],[0.1836,51.56469],[0.1827,51.56133],[0.18449,51.55766],[0.19026,51.5527],[0.18586,51.54724],[0.17992,51.54327],[0.17931,51.54036],[0.174,51.53763],[0.17088,51.5327],[0.16452,51.52708],[0.15974,51.51571],[0.15941,51.51474]]]}},{"type":"Feature","properties":{"name":"Hillingdon"},"geometry":{"type":"Polygon","coordinates":[[[-0.3896,51.51437],[-0.38257,51.51797],[-0.37602,51.5251],[-0.37667,51.52894],[-0.37784,51.52906],[-0.41339,51.53472],[-0.41763,51.53681],[-0.41945,51.53993],[-0.4054,51.54246],[-0.39529,51.54263],[-0.39651,51.54602],[-0.39417,51.54868],[-0.38525,51.5512],[-0.37788,51.55497],[-0.38236,51.56293],[-0.38328,51.56728],[-0.38644,51.57159],[-0.3886,51.57779],[-0.39156,51.58159],[-0.39202,51.58836],[-0.39547,51.59165],[-0.39761,51.59708],[-0.39995,51.59825],[-0.40026,51.59861],[-0.40241,51.60206],[-0.40232,51.60716],[-0.40406,51.61322],[-0.41114,51.61384],[-0.41662,51.61646],[-0.42669,51.61708],[-0.43818,51.61993],[-0.44537,51.61973],[-0.44825,51.61583],[-0.45714,51.61233],[-0.46918,51.61687],[-0.47706,51.62208],[-0.48751,51.62662],[-0.49155,51.6308],[-0.49724,51.63169],[-0.5002,51.62865],[-0.49777,51.62693],[-0.50008,51.62199],[-0.49548,51.61911],[-0.49896,51.61114],[-0.49698,51.6012],[-0.5006,51.5987],[-0.49858,51.59448],[-0.4994,51.59264],[-0.49576,51.58815],[-0.49472,51.58465],[-0.48973,51.58193],[-0.48808,51.57649],[-0.48402,51.57108],[-0.48478,51.5669],[-0.48259,51.56576],[-0.48121,51.561],[-0.47751,51.5603],[-0.47661,51.55806],[-0.48268,51.55155],[-0.48637,51.55024],[-0.4908,51.54507],[-0.49544,51.53829],[-0.4905,51.53418],[-0.48901,51.52922],[-0.49066,51.52683],[-0.49233,51.51731],[-0.48963,51.51418],[-0.48982,51.51158],[-0.4863,51.51018],[-0.48319,51.50667],[-0.48514,51.50268],[-0.48978,51.49894],[-0.4886,51.49679],[-0.49145,51.4931],[-0.49458,51.49276],[-0.49865,51.48928],[-0.49874,51.48618],[-0.50407,51.47935],[-0.50516,51.47446],[-0.50721,51.47063],[-0.5103,51.46753],[-0.50146,51.46738],[-0.49756,51.4662],[-0.49456,51.46365],[-0.48534,51.46131],[-0.47769,51.46143],[-0.47397,51.45881],[-0.46169,51.45729],[-0.45866,51.45634],[-0.44814,51.45365],[-0.444,51.45329],[-0.44147,51.45683],[-0.43615,51.45693],[-0.43359,51.46176],[-0.42236,51.46649],[-0.41118,51.4699],[-0.41581,51.47398],[-0.41502,51.47722],[-0.41682,51.48089],[-0.41263,51.4886],[-0.41086,51.49782],[-0.40689,51.49972],[-0.40368,51.50314],[-0.39398,51.50678],[-0.38982,51.51417],[-0.38977,51.51422],[-0.38966,51.51432],[-0.3896,51.51437]]]}},{"type":"Feature","properties":{"name":"Hounslow"},"geometry":{"type":"Polygon","coordinates":[[[-0.28388,51.5014],[-0.28571,51.5008],[-0.29403,51.50158],[-0.30069,51.49937],[-0.29762,51.49495],[-0.30587,51.49623],[-0.30546,51.49459],[-0.31198,51.49203],[-0.31586,51.49593],[-0.31915,51.49429],[-0.32341,51.49592],[-0.32996,51.4951],[-0.33469,51.49623],[-0.3421,51.49606],[-0.34977,51.49905],[-0.35818,51.49778],[-0.36294,51.49595],[-0.36529,51.49342],[-0.37115,51.49071],[-0.37376,51.49192],[-0.37764,51.49665],[-0.38351,51.49484],[-0.38709,51.49471],[-0.40689,51.49972],[-0.41086,51.49782],[-0.41263,51.4886],[-0.41682,51.48089],[-0.41502,51.47722],[-0.41581,51.47398],[-0.41118,51.4699],[-0.42236,51.46649],[-0.43359,51.46176],[-0.43615,51.45693],[-0.44147,51.45683],[-0.444,51.45329],[-0.44814,51.45365],[-0.45866,51.45634],[-0.45931,51.45273],[-0.45792,51.44924],[-0.45746,51.44302],[-0.45542,51.44197],[-0.45649,51.43812],[-0.44631,51.44001],[-0.44773,51.43502],[-0.43977,51.43464],[-0.44,51.43064],[-0.43291,51.42907],[-0.42785,51.42927],[-0.41909,51.43238],[-0.41382,51.43009],[-0.40537,51.42249],[-0.39878,51.42357],[-0.39135,51.42234],[-0.38538,51.42075],[-0.3841,51.42269],[-0.38811,51.42777],[-0.3833,51.43214],[-0.37613,51.43556],[-0.37788,51.43682],[-0.36684,51.44166],[-0.37288,51.44366],[-0.37908,51.44282],[-0.37962,51.44429],[-0.38625,51.44675],[-0.38377,51.44953],[-0.37304,51.45746],[-0.36848,51.45688],[-0.35714,51.45842],[-0.35282,51.45688],[-0.34869,51.45678],[-0.34266,51.45813],[-0.33754,51.45486],[-0.33301,51.45543],[-0.33035,51.4579],[-0.32558,51.45828],[-0.32665,51.46176],[-0.32326,51.46542],[-0.32073,51.46542],[-0.3188,51.47074],[-0.30849,51.47476],[-0.29905,51.48297],[-0.29697,51.48568],[-0.29209,51.48732],[-0.28468,51.48657],[-0.27865,51.48352],[-0.27641,51.48142],[-0.27282,51.47552],[-0.26553,51.47132],[-0.25819,51.47108],[-0.25359,51.47296],[-0.25076,51.47711],[-0.25004,51.48302],[-0.24816,51.48527],[-0.24341,51.48794],[-0.2454,51.4895],[-0.24461,51.49678],[-0.2493,51.49697],[-0.25305,51.50142],[-0.25541,51.49493],[-0.26765,51.49396],[-0.27153,51.49491],[-0.27671,51.49856],[-0.28101,51.50274],[-0.28235,51.50211],[-0.28319,51.50167],[-0.28388,51.5014]]]}},{"type":"Feature","properties":{"name":"Islington"},"geometry":{"type":"Polygon","coordinates":[[[-0.10446,51.56473],[-0.11504,51.57066],[-0.11954,51.57556],[-0.13115,51.57363],[-0.14237,51.56915],[-0.14065,51.56462],[-0.14103,51.56074],[-0.13723,51.5555],[-0.13088,51.55144],[-0.12722,51.54777],[-0.12567,51.54215],[-0.12236,51.53691],[-0.12251,51.53075],[-0.11649,51.53012],[-0.11226,51.52369],[-0.107,51.52218],[-0.1053,51.51856],[-0.0976,51.52071],[-0.09746,51.52225],[-0.08517,51.52036],[-0.08497,51.52622],[-0.08955,51.52773],[-0.09536,51.52922],[-0.09548,51.53081],[-0.09585,51.53133],[-0.09596,51.53331],[-0.095,51.53366],[-0.09444,51.53388],[-0.09394,51.53406],[-0.08641,51.53757],[-0.08361,51.54509],[-0.08379,51.54663],[-0.07679,51.5461],[-0.07928,51.55161],[-0.08545,51.55219],[-0.09035,51.55418],[-0.09038,51.55784],[-0.09371,51.56058],[-0.09424,51.56082],[-0.09478,51.56099],[-0.09571,51.5612],[-0.09854,51.56086],[-0.10446,51.56473]]]}},{"type":"Feature","properties":{"name":"Kensington and Chelsea"},"geometry":{"type":"Polygon","coordinates":[[[-0.21599,51.52795],[-0.22449,51.53011],[-0.22847,51.53038],[-0.2267,51.522],[-0.22827,51.52112],[-0.222,51.51477],[-0.21925,51.5096],[-0.21517,51.50767],[-0.21788,51.50612],[-0.21412,51.50076],[-0.20797,51.49604],[-0.20517,51.49496],[-0.19826,51.48814],[-0.19359,51.48583],[-0.18385,51.47744],[-0.17778,51.47757],[-0.17491,51.48021],[-0.17089,51.4817],[-0.1498,51.48458],[-0.15033,51.48625],[-0.15583,51.48962],[-0.15606,51.49778],[-0.16055,51.50179],[-0.16547,51.49872],[-0.16838,51.49904],[-0.17953,51.4978],[-0.1803,51.50148],[-0.18422,51.50181],[-0.1879,51.5102],[-0.19211,51.50989],[-0.19504,51.51505],[-0.19917,51.51457],[-0.2005,51.52081],[-0.20714,51.52628],[-0.21599,51.52795]]]}},{"type":"Feature","properties":{"name":"Kingston upon Thames"},"geometry":{"type":"Polygon","coordinates":[[[-0.3177,51.39368],[-0.31085,51.3862],[-0.3075,51.37902],[-0.30868,51.37546],[-0.31432,51.37465],[-0.31749,51.37198],[-0.31827,51.36351],[-0.32024,51.35911],[-0.32374,51.35442],[-0.32803,51.35214],[-0.33052,51.34843],[-0.32816,51.34405],[-0.3297,51.33287],[-0.33074,51.32886],[-0.3283,51.32647],[-0.31929,51.32781],[-0.3137,51.33142],[-0.30569,51.33541],[-0.30389,51.34326],[-0.29993,51.34768],[-0.2928,51.35253],[-0.29109,51.35657],[-0.28534,51.36108],[-0.28544,51.36426],[-0.27982,51.36783],[-0.27627,51.36908],[-0.27193,51.3726],[-0.26468,51.37563],[-0.26082,51.37956],[-0.25235,51.37891],[-0.24503,51.38004],[-0.24415,51.3835],[-0.23881,51.38608],[-0.23967,51.38931],[-0.24176,51.39395],[-0.24467,51.39472],[-0.24746,51.39766],[-0.24463,51.40436],[-0.24548,51.40736],[-0.24947,51.41488],[-0.24953,51.41816],[-0.25384,51.43036],[-0.25367,51.43054],[-0.25339,51.43088],[-0.25106,51.43258],[-0.25406,51.43731],[-0.26457,51.43293],[-0.27094,51.42956],[-0.28044,51.42187],[-0.2866,51.42019],[-0.29062,51.429],[-0.29339,51.42653],[-0.30151,51.43055],[-0.31066,51.43223],[-0.31445,51.42827],[-0.30924,51.42572],[-0.30601,51.42125],[-0.30829,51.41526],[-0.30906,51.4095],[-0.30868,51.4035],[-0.30964,51.40003],[-0.3177,51.39368]]]}},{"type":"Feature","properties":{"name":"Lambeth"},"geometry":{"type":"Polygon","coordinates":[[[-0.08885,51.43055],[-0.08926,51.43182],[-0.09053,51.43647],[-0.09359,51.44227],[-0.09375,51.44246],[-0.09521,51.44572],[-0.09565,51.44628],[-0.09921,51.4491],[-0.10089,51.45417],[-0.09546,51.4579],[-0.09516,51.45839],[-0.0941,51.45961],[-0.0936,51.46002],[-0.09062,51.46331],[-0.09009,51.46633],[-0.09368,51.47162],[-0.09395,51.47089],[-0.09502,51.47022],[-0.09595,51.4699],[-0.10064,51.47447],[-0.09995,51.47689],[-0.10831,51.48033],[-0.104,51.48088],[-0.10841,51.48587],[-0.10335,51.49089],[-0.10479,51.49352],[-0.11093,51.4956],[-0.10666,51.50168],[-0.10642,51.505],[-0.10911,51.50985],[-0.11142,51.50976],[-0.11771,51.5084],[-0.12106,51.50486],[-0.12284,51.49402],[-0.12476,51.49007],[-0.12953,51.48592],[-0.12625,51.4845],[-0.1299,51.48114],[-0.13589,51.47267],[-0.1403,51.47161],[-0.15058,51.46763],[-0.15075,51.46307],[-0.1483,51.45732],[-0.14771,51.45232],[-0.14229,51.45098],[-0.14567,51.44567],[-0.14361,51.44179],[-0.13615,51.44165],[-0.13971,51.43541],[-0.1366,51.43392],[-0.13555,51.43104],[-0.13531,51.43045],[-0.13839,51.43047],[-0.13883,51.42383],[-0.13781,51.42112],[-0.14037,51.41926],[-0.14802,51.41288],[-0.14261,51.41333],[-0.13404,51.41102],[-0.12777,51.41233],[-0.12255,51.41502],[-0.11993,51.41875],[-0.11587,51.42048],[-0.11267,51.42324],[-0.10647,51.42262],[-0.09614,51.42277],[-0.0948,51.42281],[-0.09388,51.42281],[-0.0936,51.42277],[-0.08638,51.41932],[-0.07863,51.41984],[-0.07828,51.42052],[-0.08371,51.42518],[-0.08587,51.42853],[-0.08885,51.43055]]]}},{"type":"Feature","properties":{"name":"Lewisham"},"geometry":{"type":"Polygon","coordinates":[[[-0.00001,51.41762],[0.00001,51.41763],[0.00355,51.41741],[0.0074,51.42139],[0.01846,51.42702],[0.02111,51.42682],[0.02518,51.429],[0.03624,51.42237],[0.0386,51.42465],[0.0378,51.43074],[0.03772,51.43103],[0.03383,51.43175],[0.0254,51.43594],[0.02473,51.43823],[0.02875,51.43876],[0.02895,51.44164],[0.02162,51.44271],[0.02069,51.44419],[0.02199,51.44897],[0.01804,51.44942],[0.01754,51.45506],[0.01159,51.45672],[0.01015,51.45912],[0.00915,51.46589],[0.01334,51.46685],[0.01266,51.46982],[0.01671,51.46951],[0.01497,51.47311],[-0.0018,51.47187],[-0.01402,51.47265],[-0.01307,51.46895],[-0.01906,51.46996],[-0.02,51.4731],[-0.02276,51.4743],[-0.01899,51.47721],[-0.01782,51.4809],[-0.02302,51.47964],[-0.02635,51.48153],[-0.02346,51.48684],[-0.02725,51.48943],[-0.02989,51.49358],[-0.03726,51.49224],[-0.04269,51.49004],[-0.0475,51.49039],[-0.05141,51.48946],[-0.0536,51.48737],[-0.0529,51.4828],[-0.05428,51.47862],[-0.05265,51.47802],[-0.05271,51.47295],[-0.05044,51.46659],[-0.04679,51.46471],[-0.04513,51.45994],[-0.04611,51.45698],[-0.0416,51.455],[-0.0461,51.44989],[-0.05396,51.44877],[-0.05751,51.45035],[-0.06304,51.4462],[-0.06365,51.43794],[-0.06574,51.43472],[-0.07272,51.4322],[-0.07505,51.42881],[-0.07389,51.42616],[-0.06344,51.42531],[-0.05691,51.42299],[-0.05173,51.42251],[-0.0436,51.42292],[-0.03744,51.42503],[-0.03032,51.42573],[-0.02091,51.42093],[-0.02218,51.41676],[-0.01421,51.41367],[-0.01049,51.41356],[-0.0008,51.4159],[-0.00001,51.41762]]]}},{"type":"Feature","properties":{"name":"Merton"},"geometry":{"type":"Polygon","coordinates":[[[-0.14037,51.41926],[-0.14453,51.41775],[-0.15956,51.42258],[-0.16156,51.41988],[-0.16506,51.4201],[-0.17356,51.42319],[-0.18191,51.42475],[-0.18452,51.42764],[-0.18412,51.43123],[-0.19031,51.4319],[-0.19111,51.43364],[-0.18918,51.43856],[-0.19001,51.44149],[-0.20362,51.43902],[-0.21565,51.43774],[-0.22425,51.43887],[-0.23129,51.43815],[-0.25106,51.43258],[-0.25339,51.43088],[-0.25367,51.43054],[-0.25384,51.43036],[-0.24953,51.41816],[-0.24947,51.41488],[-0.24548,51.40736],[-0.24463,51.40436],[-0.24746,51.39766],[-0.24467,51.39472],[-0.24176,51.39395],[-0.23967,51.38931],[-0.23463,51.39055],[-0.2339,51.38772],[-0.22772,51.38396],[-0.21811,51.38016],[-0.21011,51.38799],[-0.20048,51.38489],[-0.19392,51.38788],[-0.18902,51.38582],[-0.18842,51.38546],[-0.18719,51.38616],[-0.18607,51.38675],[-0.17908,51.38995],[-0.17483,51.39343],[-0.17138,51.39248],[-0.16537,51.38803],[-0.161,51.38778],[-0.1576,51.38922],[-0.14434,51.39069],[-0.14189,51.38935],[-0.13434,51.39089],[-0.12418,51.39761],[-0.13129,51.40419],[-0.13244,51.40842],[-0.12944,51.40958],[-0.12777,51.41233],[-0.13404,51.41102],[-0.14261,51.41333],[-0.14802,51.41288],[-0.14037,51.41926]]]}},{"type":"Feature","properties":{"name":"Newham"},"geometry":{"type":"Polygon","coordinates":[[[0.06839,51.54444],[0.06786,51.55308],[0.06366,51.55733],[0.06022,51.55645],[0.05143,51.56235],[0.05038,51.56401],[0.04199,51.56147],[0.0462,51.55486],[0.03541,51.55528],[0.0254,51.55409],[0.0204,51.55629],[0.01701,51.55321],[0.01464,51.55498],[0.00583,51.55189],[-0.00029,51.55174],[-0.00844,51.54998],[-0.00941,51.55224],[-0.01713,51.55173],[-0.01907,51.55164],[-0.01644,51.5433],[-0.02121,51.53716],[-0.01747,51.53156],[-0.01089,51.52946],[-0.00732,51.52599],[-0.00887,51.51991],[-0.00532,51.51661],[-0.00202,51.51792],[0.00768,51.51351],[0.0063,51.50974],[0.00993,51.5081],[0.00766,51.50553],[0.01559,51.49927],[0.01895,51.49751],[0.0291,51.4958],[0.04126,51.49704],[0.05869,51.49645],[0.06626,51.49678],[0.07492,51.49843],[0.07905,51.50093],[0.08597,51.50826],[0.09081,51.51094],[0.09978,51.51192],[0.09915,51.51468],[0.09866,51.51494],[0.09815,51.51522],[0.09495,51.51707],[0.09468,51.52082],[0.09393,51.52136],[0.09258,51.52576],[0.09236,51.52588],[0.0859,51.52582],[0.0727,51.53125],[0.06677,51.54128],[0.06839,51.54444]]]}},{"type":"Feature","properties":{"name":"Redbridge"},"geometry":{"type":"Polygon","coordinates":[[[0.06839,51.54444],[0.07186,51.54361],[0.08164,51.54522],[0.08631,51.54745],[0.09155,51.54828],[0.09354,51.54581],[0.10531,51.55029],[0.10849,51.5527],[0.11113,51.55249],[0.11723,51.55691],[0.11983,51.56251],[0.12942,51.56647],[0.13099,51.57346],[0.12931,51.57632],[0.13092,51.57942],[0.12771,51.58166],[0.12648,51.58673],[0.13109,51.58753],[0.12961,51.59008],[0.13749,51.59387],[0.14665,51.59948],[0.14822,51.59908],[0.14955,51.60291],[0.14746,51.61249],[0.14454,51.61674],[0.13824,51.62357],[0.12924,51.62147],[0.12447,51.61769],[0.11936,51.6154],[0.11677,51.61695],[0.10968,51.61399],[0.10389,51.61258],[0.10022,51.61275],[0.09812,51.61545],[0.09233,51.6136],[0.09488,51.6108],[0.0927,51.6095],[0.09263,51.60622],[0.08719,51.60449],[0.08493,51.6062],[0.07942,51.60707],[0.07288,51.60471],[0.06304,51.60694],[0.04886,51.61362],[0.05026,51.61644],[0.04295,51.61681],[0.03778,51.61795],[0.03282,51.62227],[0.02186,51.62886],[0.01853,51.62283],[0.01438,51.62033],[0.01632,51.61688],[0.02144,51.61117],[0.01293,51.59917],[0.01282,51.59805],[0.0121,51.59331],[0.01343,51.58381],[0.01748,51.57748],[0.01773,51.57003],[0.01907,51.56697],[0.01449,51.56563],[0.01482,51.55946],[0.0204,51.55629],[0.0254,51.55409],[0.03541,51.55528],[0.0462,51.55486],[0.04199,51.56147],[0.05038,51.56401],[0.05143,51.56235],[0.06022,51.55645],[0.06366,51.55733],[0.06786,51.55308],[0.06839,51.54444]]]}},{"type":"Feature","properties":{"name":"Richmond upon Thames"},"geometry":{"type":"Polygon","coordinates":[[[-0.24341,51.48794],[-0.24816,51.48527],[-0.25004,51.48302],[-0.25076,51.47711],[-0.25359,51.47296],[-0.25819,51.47108],[-0.26553,51.47132],[-0.27282,51.47552],[-0.27641,51.48142],[-0.27865,51.48352],[-0.28468,51.48657],[-0.29209,51.48732],[-0.29697,51.48568],[-0.29905,51.48297],[-0.30849,51.47476],[-0.3188,51.47074],[-0.32073,51.46542],[-0.32326,51.46542],[-0.32665,51.46176],[-0.32558,51.45828],[-0.33035,51.4579],[-0.33301,51.45543],[-0.33754,51.45486],[-0.34266,51.45813],[-0.34869,51.45678],[-0.35282,51.45688],[-0.35714,51.45842],[-0.36848,51.45688],[-0.37304,51.45746],[-0.38377,51.44953],[-0.38625,51.44675],[-0.37962,51.44429],[-0.37908,51.44282],[-0.37288,51.44366],[-0.36684,51.44166],[-0.37788,51.43682],[-0.37613,51.43556],[-0.3833,51.43214],[-0.38811,51.42777],[-0.3841,51.42269],[-0.38538,51.42075],[-0.39135,51.42234],[-0.38665,51.4201],[-0.38613,51.41429],[-0.3903,51.41435],[-0.38966,51.41071],[-0.38379,51.41013],[-0.38336,51.40855],[-0.37811,51.4079],[-0.37316,51.40861],[-0.36618,51.41123],[-0.36,51.41205],[-0.34463,51.40441],[-0.34051,51.40303],[-0.33708,51.3995],[-0.32782,51.39185],[-0.3246,51.39151],[-0.3177,51.39368],[-0.30964,51.40003],[-0.30868,51.4035],[-0.30906,51.4095],[-0.30829,51.41526],[-0.30601,51.42125],[-0.30924,51.42572],[-0.31445,51.42827],[-0.31066,51.43223],[-0.30151,51.43055],[-0.29339,51.42653],[-0.29062,51.429],[-0.2866,51.42019],[-0.28044,51.42187],[-0.27094,51.42956],[-0.26457,51.43293],[-0.25406,51.43731],[-0.2427,51.44193],[-0.2416,51.44315],[-0.2473,51.4492],[-0.25909,51.45495],[-0.25551,51.46348],[-0.25289,51.46523],[-0.24147,51.46506],[-0.23328,51.46401],[-0.233,51.47205],[-0.23077,51.4728],[-0.2237,51.47078],[-0.2217,51.47238],[-0.22504,51.47586],[-0.22568,51.48213],[-0.22726,51.48567],[-0.23363,51.48951],[-0.23981,51.48943],[-0.24341,51.48794]]]}},{"type":"Feature","properties":{"name":"Southwark"},"geometry":{"type":"Polygon","coordinates":[[[-0.08015,51.50687],[-0.0964,51.50939],[-0.10911,51.50985],[-0.10642,51.505],[-0.10666,51.50168],[-0.11093,51.4956],[-0.10479,51.49352],[-0.10335,51.49089],[-0.10841,51.48587],[-0.104,51.48088],[-0.10831,51.48033],[-0.09995,51.47689],[-0.10064,51.47447],[-0.09595,51.4699],[-0.09502,51.47022],[-0.09395,51.47089],[-0.09368,51.47162],[-0.09009,51.46633],[-0.09062,51.46331],[-0.0936,51.46002],[-0.0941,51.45961],[-0.09516,51.45839],[-0.09546,51.4579],[-0.10089,51.45417],[-0.09921,51.4491],[-0.09565,51.44628],[-0.09521,51.44572],[-0.09375,51.44246],[-0.09359,51.44227],[-0.09053,51.43647],[-0.08926,51.43182],[-0.08885,51.43055],[-0.08587,51.42853],[-0.08371,51.42518],[-0.07828,51.42052],[-0.07389,51.42616],[-0.07505,51.42881],[-0.07272,51.4322],[-0.06574,51.43472],[-0.06365,51.43794],[-0.06304,51.4462],[-0.05751,51.45035],[-0.05396,51.44877],[-0.0461,51.44989],[-0.0416,51.455],[-0.04611,51.45698],[-0.04513,51.45994],[-0.04679,51.46471],[-0.05044,51.46659],[-0.05271,51.47295],[-0.05265,51.47802],[-0.05428,51.47862],[-0.0529,51.4828],[-0.0536,51.48737],[-0.05141,51.48946],[-0.0475,51.49039],[-0.04269,51.49004],[-0.03726,51.49224],[-0.02989,51.49358],[-0.02933,51.50283],[-0.03028,51.50576],[-0.03777,51.5085],[-0.04388,51.50839],[-0.05482,51.50281],[-0.05984,51.50168],[-0.06418,51.50219],[-0.08015,51.50687]]]}},{"type":"Feature","properties":{"name":"Sutton"},"geometry":{"type":"Polygon","coordinates":[[[-0.24503,51.38004],[-0.24454,51.37048],[-0.2454,51.36685],[-0.23705,51.36691],[-0.23319,51.36602],[-0.22687,51.3626],[-0.22286,51.35714],[-0.22209,51.35133],[-0.22024,51.35024],[-0.21726,51.34339],[-0.22982,51.33653],[-0.22094,51.32987],[-0.21409,51.33035],[-0.2119,51.33331],[-0.21303,51.33554],[-0.20348,51.33964],[-0.2012,51.33989],[-0.19765,51.34349],[-0.18722,51.3406],[-0.17413,51.33321],[-0.17286,51.33002],[-0.17006,51.32948],[-0.16307,51.33027],[-0.16418,51.32604],[-0.15654,51.32151],[-0.1455,51.32353],[-0.14442,51.32648],[-0.1493,51.32877],[-0.14514,51.33154],[-0.14751,51.33878],[-0.14449,51.3395],[-0.14457,51.34201],[-0.14149,51.34341],[-0.12709,51.34679],[-0.12589,51.34524],[-0.11688,51.34576],[-0.11908,51.35315],[-0.12187,51.35906],[-0.12095,51.36329],[-0.12332,51.37117],[-0.12818,51.38056],[-0.12961,51.38716],[-0.13434,51.39089],[-0.14189,51.38935],[-0.14434,51.39069],[-0.1576,51.38922],[-0.161,51.38778],[-0.16537,51.38803],[-0.17138,51.39248],[-0.17483,51.39343],[-0.17908,51.38995],[-0.18607,51.38675],[-0.18719,51.38616],[-0.18842,51.38546],[-0.18902,51.38582],[-0.19392,51.38788],[-0.20048,51.38489],[-0.21011,51.38799],[-0.21811,51.38016],[-0.22772,51.38396],[-0.2339,51.38772],[-0.23463,51.39055],[-0.23967,51.38931],[-0.23881,51.38608],[-0.24415,51.3835],[-0.24503,51.38004]]]}},{"type":"Feature","properties":{"name":"Tower Hamlets"},"geometry":{"type":"Polygon","coordinates":[[[-0.02346,51.48684],[-0.01667,51.48469],[-0.01055,51.48475],[-0.0045,51.48634],[-0.00115,51.48871],[-0.00036,51.49141],[-0.00513,51.50099],[-0.00115,51.5059],[0.0042,51.50673],[0.00766,51.50553],[0.00993,51.5081],[0.0063,51.50974],[0.00768,51.51351],[-0.00202,51.51792],[-0.00532,51.51661],[-0.00887,51.51991],[-0.00732,51.52599],[-0.01089,51.52946],[-0.01747,51.53156],[-0.02121,51.53716],[-0.01644,51.5433],[-0.02529,51.54324],[-0.02903,51.54231],[-0.03293,51.54465],[-0.0414,51.53744],[-0.04487,51.53581],[-0.05138,51.53641],[-0.05279,51.53491],[-0.06531,51.53296],[-0.06626,51.53125],[-0.07221,51.53086],[-0.0772,51.52732],[-0.07614,51.52217],[-0.07842,51.52153],[-0.07938,51.51887],[-0.07392,51.51447],[-0.07267,51.51025],[-0.07785,51.51001],[-0.08015,51.50687],[-0.06418,51.50219],[-0.05984,51.50168],[-0.05482,51.50281],[-0.04388,51.50839],[-0.03777,51.5085],[-0.03028,51.50576],[-0.02933,51.50283],[-0.02989,51.49358],[-0.02725,51.48943],[-0.02346,51.48684]]]}},{"type":"Feature","properties":{"name":"Waltham Forest"},"geometry":{"type":"Polygon","coordinates":[[[0.02186,51.62886],[0.02578,51.6346],[0.02312,51.63775],[0.02276,51.64115],[0.01587,51.64047],[0.0108,51.6414],[0.00097,51.64183],[-0.00824,51.64369],[-0.00731,51.64619],[-0.01222,51.64626],[-0.01322,51.63988],[-0.01533,51.63549],[-0.0257,51.62202],[-0.03236,51.61665],[-0.03554,51.61212],[-0.03493,51.60843],[-0.04139,51.60567],[-0.04688,51.59942],[-0.04776,51.5987],[-0.05041,51.59673],[-0.05335,51.59086],[-0.05211,51.58784],[-0.05797,51.58242],[-0.06221,51.57948],[-0.06113,51.57781],[-0.05838,51.57255],[-0.04743,51.56521],[-0.04505,51.56178],[-0.03325,51.56065],[-0.02987,51.56139],[-0.02459,51.55902],[-0.01842,51.55514],[-0.01713,51.55173],[-0.00941,51.55224],[-0.00844,51.54998],[-0.00029,51.55174],[0.00583,51.55189],[0.01464,51.55498],[0.01701,51.55321],[0.0204,51.55629],[0.01482,51.55946],[0.01449,51.56563],[0.01907,51.56697],[0.01773,51.57003],[0.01748,51.57748],[0.01343,51.58381],[0.0121,51.59331],[0.01282,51.59805],[0.01293,51.59917],[0.02144,51.61117],[0.01632,51.61688],[0.01438,51.62033],[0.01853,51.62283],[0.02186,51.62886]]]}},{"type":"Feature","properties":{"name":"Wandsworth"},"geometry":{"type":"Polygon","coordinates":[[[-0.14037,51.41926],[-0.13781,51.42112],[-0.13883,51.42383],[-0.13839,51.43047],[-0.13531,51.43045],[-0.13555,51.43104],[-0.1366,51.43392],[-0.13971,51.43541],[-0.13615,51.44165],[-0.14361,51.44179],[-0.14567,51.44567],[-0.14229,51.45098],[-0.14771,51.45232],[-0.1483,51.45732],[-0.15075,51.46307],[-0.15058,51.46763],[-0.1403,51.47161],[-0.13589,51.47267],[-0.1299,51.48114],[-0.12625,51.4845],[-0.12953,51.48592],[-0.13662,51.48401],[-0.1498,51.48458],[-0.17089,51.4817],[-0.17491,51.48021],[-0.17778,51.47757],[-0.17898,51.47343],[-0.18286,51.46754],[-0.18736,51.46513],[-0.1878,51.46498],[-0.18902,51.46461],[-0.19014,51.46433],[-0.19516,51.46391],[-0.2048,51.46469],[-0.21596,51.46816],[-0.2217,51.47238],[-0.2237,51.47078],[-0.23077,51.4728],[-0.233,51.47205],[-0.23328,51.46401],[-0.24147,51.46506],[-0.25289,51.46523],[-0.25551,51.46348],[-0.25909,51.45495],[-0.2473,51.4492],[-0.2416,51.44315],[-0.2427,51.44193],[-0.25406,51.43731],[-0.25106,51.43258],[-0.23129,51.43815],[-0.22425,51.43887],[-0.21565,51.43774],[-0.20362,51.43902],[-0.19001,51.44149],[-0.18918,51.43856],[-0.19111,51.43364],[-0.19031,51.4319],[-0.18412,51.43123],[-0.18452,51.42764],[-0.18191,51.42475],[-0.17356,51.42319],[-0.16506,51.4201],[-0.16156,51.41988],[-0.15956,51.42258],[-0.14453,51.41775],[-0.14037,51.41926]]]}},{"type":"Feature","properties":{"name":"Westminster"},"geometry":{"type":"Polygon","coordinates":[[[-0.11156,51.51536],[-0.11467,51.51606],[-0.11945,51.51453],[-0.12285,51.51517],[-0.12756,51.51267],[-0.13079,51.51712],[-0.13699,51.51891],[-0.14286,51.5239],[-0.14715,51.52506],[-0.15269,51.53754],[-0.16492,51.5358],[-0.1695,51.53862],[-0.17388,51.5395],[-0.18038,51.53952],[-0.18466,51.53793],[-0.18874,51.53455],[-0.19145,51.53631],[-0.19286,51.53216],[-0.19796,51.53014],[-0.2017,51.53267],[-0.20814,51.53277],[-0.21517,51.53141],[-0.21599,51.52795],[-0.20714,51.52628],[-0.2005,51.52081],[-0.19917,51.51457],[-0.19504,51.51505],[-0.19211,51.50989],[-0.1879,51.5102],[-0.18422,51.50181],[-0.1803,51.50148],[-0.17953,51.4978],[-0.16838,51.49904],[-0.16547,51.49872],[-0.16055,51.50179],[-0.15606,51.49778],[-0.15583,51.48962],[-0.15033,51.48625],[-0.1498,51.48458],[-0.13662,51.48401],[-0.12953,51.48592],[-0.12476,51.49007],[-0.12284,51.49402],[-0.12106,51.50486],[-0.11771,51.5084],[-0.11142,51.50976],[-0.11156,51.51536]]]}}]}
